GLOBALSTAR M035         
1 25851U 99037A   25337.45461513 -.00000011  00000+0  19666-2 0  9990
2 25851  51.9980  37.4800 0013444 254.0842 205.5040 11.04540296114967
GLOBALSTAR M032         
1 25852U 99037B   25337.33192568  .00000075  00000+0  45610-2 0  9996
2 25852  51.9930 211.2866 0013561  89.6382 270.5972 11.19074533153723
GLOBALSTAR M051         
1 25853U 99037C   25337.47909056 -.00000107  00000+0 -87583-3 0  9994
2 25853  51.9821 352.4944 0000284 148.7297 211.3531 11.42205071151730
GLOBALSTAR M030         
1 25854U 99037D   25337.51812584 -.00000062  00000+0  28194-3 0  9991
2 25854  51.9843 147.7366 0003240  13.9818 346.1088 11.55109767169614
GLOBALSTAR M048         
1 25872U 99041A   25337.31095766 -.00000065  00000+0  13353-3 0  9993
2 25872  51.9391 294.4735 0013311 115.1682  34.1833 11.33860528144166
GLOBALSTAR M026         
1 25873U 99041B   25337.47015103 -.00000009  00000+0  20175-2 0  9995
2 25873  51.9972 153.6186 0001947 151.9649 229.8881 11.06848311167236
GLOBALSTAR M043         
1 25874U 99041C   25337.50149242 -.00000079  00000+0 -30953-3 0  9996
2 25874  51.9427  48.4086 0013480 237.0053 136.0810 11.25696318141942
GLOBALSTAR M028         
1 25875U 99041D   25337.51189773 -.00000099  00000+0  10430-4 0  9991
2 25875  51.9642  48.1632 0063656  79.6083 281.1944 12.50591937211363
